{
  "type": "FeatureCollection",
  "features": [
    {
      "type": "Feature",
      "properties": {
        "norad_id": 34079,
        "name": "IRIDIUM 33 DEB",
        "group": "iridium-33-debris",
        "lat": -45.81979451449646,
        "lon": -169.83697064619327,
        "alt_km": 626.7402958823131,
        "timestamp": "2025-12-17T15:50:10.166019+00:00",
        "meta_object_name": "IRIDIUM 33 DEB",
        "meta_object_id": "1997-051CN",
        "meta_epoch": "2025-12-17T03:40:54.842592",
        "meta_mean_motion": 14.83642844,
        "meta_eccentricity": 0.00050567,
        "meta_inclination": 86.3773,
        "meta_ra_of_asc_node": 6.6553,
        "meta_arg_of_pericenter": 353.1385,
        "meta_mean_anomaly": 49.6473,
        "meta_ephemeris_type": 0,
        "meta_classification_type": "U",
        "meta_norad_cat_id": 34079,
        "meta_element_set_no": 999,
        "meta_rev_at_epoch": 89043,
        "meta_bstar": 0.0012810201,
        "meta_mean_motion_dot": 0.00010602,
        "meta_mean_motion_ddot": 0,
        "tle_line1": "1 34079U 97051CN  25351.15341253  .00010602  00000+0  12810-2 0  9997",
        "tle_line2": "2 34079  86.3773   6.6553 0005056 353.1385  49.6473 14.83642844890439"
      },
      "geometry": {
        "type": "Point",
        "coordinates": [
          -169.83697064619327,
          -45.81979451449646
        ]
      }
    },
    {
      "type": "Feature",
      "properties": {
        "norad_id": 34088,
        "name": "IRIDIUM 33 DEB",
        "group": "iridium-33-debris",
        "lat": 82.03932827278439,
        "lon": -178.41749345351934,
        "alt_km": 583.6218703816412,
        "timestamp": "2025-12-17T15:50:10.166030+00:00",
        "meta_object_name": "IRIDIUM 33 DEB",
        "meta_object_id": "1997-051CX",
        "meta_epoch": "2025-12-17T04:25:45.014592",
        "meta_mean_motion": 14.91589162,
        "meta_eccentricity": 0.00061459,
        "meta_inclination": 86.3846,
        "meta_ra_of_asc_node": 28.6819,
        "meta_arg_of_pericenter": 162.0199,
        "meta_mean_anomaly": 264.6284,
        "meta_ephemeris_type": 0,
        "meta_classification_type": "U",
        "meta_norad_cat_id": 34088,
        "meta_element_set_no": 999,
        "meta_rev_at_epoch": 88808,
        "meta_bstar": 0.0019065892,
        "meta_mean_motion_dot": 0.00019185,
        "meta_mean_motion_ddot": 0,
        "tle_line1": "1 34088U 97051CX  25351.18454878  .00019185  00000+0  19066-2 0  9993",
        "tle_line2": "2 34088  86.3846  28.6819 0006145 162.0199 264.6284 14.91589162888088"
      },
      "geometry": {
        "type": "Point",
        "coordinates": [
          -178.41749345351934,
          82.03932827278439
        ]
      }
    },
    {
      "type": "Feature",
      "properties": {
        "norad_id": 34091,
        "name": "IRIDIUM 33 DEB",
        "group": "iridium-33-debris",
        "lat": 64.86632305258549,
        "lon": -123.25473743731916,
        "alt_km": 638.3307441954621,
        "timestamp": "2025-12-17T15:50:10.166041+00:00",
        "meta_object_name": "IRIDIUM 33 DEB",
        "meta_object_id": "1997-051DA",
        "meta_epoch": "2025-12-17T05:35:44.413152",
        "meta_mean_motion": 14.821607,
        "meta_eccentricity": 0.00335287,
        "meta_inclination": 86.3429,
        "meta_ra_of_asc_node": 64.7761,
        "meta_arg_of_pericenter": 276.8979,
        "meta_mean_anomaly": 82.8429,
        "meta_ephemeris_type": 0,
        "meta_classification_type": "U",
        "meta_norad_cat_id": 34091,
        "meta_element_set_no": 999,
        "meta_rev_at_epoch": 87933,
        "meta_bstar": 0.0036738362,
        "meta_mean_motion_dot": 0.00029654,
        "meta_mean_motion_ddot": 0,
        "tle_line1": "1 34091U 97051DA  25351.23315293  .00029654  00000+0  36738-2 0  9997",
        "tle_line2": "2 34091  86.3429  64.7761 0033528 276.8979  82.8429 14.82160700879333"
      },
      "geometry": {
        "type": "Point",
        "coordinates": [
          -123.25473743731916,
          64.86632305258549
        ]
      }
    },
    {
      "type": "Feature",
      "properties": {
        "norad_id": 34097,
        "name": "IRIDIUM 33 DEB",
        "group": "iridium-33-debris",
        "lat": -66.79216036168708,
        "lon": -171.84703266980753,
        "alt_km": 791.8237303704182,
        "timestamp": "2025-12-17T15:50:10.166052+00:00",
        "meta_object_name": "IRIDIUM 33 DEB",
        "meta_object_id": "1997-051DG",
        "meta_epoch": "2025-12-17T07:59:16.384992",
        "meta_mean_motion": 14.34813921,
        "meta_eccentricity": 0.00821238,
        "meta_inclination": 86.2005,
        "meta_ra_of_asc_node": 359.381,
        "meta_arg_of_pericenter": 347.195,
        "meta_mean_anomaly": 12.7158,
        "meta_ephemeris_type": 0,
        "meta_classification_type": "U",
        "meta_norad_cat_id": 34097,
        "meta_element_set_no": 999,
        "meta_rev_at_epoch": 87185,
        "meta_bstar": 0.0011359211,
        "meta_mean_motion_dot": 3.365e-05,
        "meta_mean_motion_ddot": 0,
        "tle_line1": "1 34097U 97051DG  25351.33282853  .00003365  00000+0  11359-2 0  9992",
        "tle_line2": "2 34097  86.2005 359.3810 0082123 347.1950  12.7158 14.34813921871859"
      },
      "geometry": {
        "type": "Point",
        "coordinates": [
          -171.84703266980753,
          -66.79216036168708
        ]
      }
    },
    {
      "type": "Feature",
      "properties": {
        "norad_id": 34145,
        "name": "IRIDIUM 33 DEB",
        "group": "iridium-33-debris",
        "lat": -69.98160918688379,
        "lon": -40.14361924375444,
        "alt_km": 792.0146171385613,
        "timestamp": "2025-12-17T15:50:10.166063+00:00",
        "meta_object_name": "IRIDIUM 33 DEB",
        "meta_object_id": "1997-051DY",
        "meta_epoch": "2025-12-16T23:30:45.812160",
        "meta_mean_motion": 14.42319443,
        "meta_eccentricity": 0.00557597,
        "meta_inclination": 86.2113,
        "meta_ra_of_asc_node": 330.6385,
        "meta_arg_of_pericenter": 80.3876,
        "meta_mean_anomaly": 280.3618,
        "meta_ephemeris_type": 0,
        "meta_classification_type": "U",
        "meta_norad_cat_id": 34145,
        "meta_element_set_no": 999,
        "meta_rev_at_epoch": 87699,
        "meta_bstar": 0.00087533026,
        "meta_mean_motion_dot": 2.964e-05,
        "meta_mean_motion_ddot": 0,
        "tle_line1": "1 34145U 97051DY  25350.97969690  .00002964  00000+0  87533-3 0  9998",
        "tle_line2": "2 34145  86.2113 330.6385 0055759  80.3876 280.3618 14.42319443876993"
      },
      "geometry": {
        "type": "Point",
        "coordinates": [
          -40.14361924375444,
          -69.98160918688379
        ]
      }
    },
    {
      "type": "Feature",
      "properties": {
        "norad_id": 34146,
        "name": "IRIDIUM 33 DEB",
        "group": "iridium-33-debris",
        "lat": 46.92478066765563,
        "lon": -8.385909371106246,
        "alt_km": 741.5964205761811,
        "timestamp": "2025-12-17T15:50:10.166073+00:00",
        "meta_object_name": "IRIDIUM 33 DEB",
        "meta_object_id": "1997-051DZ",
        "meta_epoch": "2025-12-17T00:58:35.660928",
        "meta_mean_motion": 14.49078615,
        "meta_eccentricity": 0.00259215,
        "meta_inclination": 86.2833,
        "meta_ra_of_asc_node": 347.9009,
        "meta_arg_of_pericenter": 206.5098,
        "meta_mean_anomaly": 212.8922,
        "meta_ephemeris_type": 0,
        "meta_classification_type": "U",
        "meta_norad_cat_id": 34146,
        "meta_element_set_no": 999,
        "meta_rev_at_epoch": 88169,
        "meta_bstar": 0.00069898719,
        "meta_mean_motion_dot": 2.685e-05,
        "meta_mean_motion_ddot": 0,
        "tle_line1": "1 34146U 97051DZ  25351.04069052  .00002685  00000+0  69899-3 0  9996",
        "tle_line2": "2 34146  86.2833 347.9009 0025921 206.5098 212.8922 14.49078615881694"
      },
      "geometry": {
        "type": "Point",
        "coordinates": [
          -8.385909371106246,
          46.92478066765563
        ]
      }
    },
    {
      "type": "Feature",
      "properties": {
        "norad_id": 34159,
        "name": "IRIDIUM 33 DEB",
        "group": "iridium-33-debris",
        "lat": -64.49822695597717,
        "lon": 38.45383409382626,
        "alt_km": 753.9401063938731,
        "timestamp": "2025-12-17T15:50:10.166084+00:00",
        "meta_object_name": "IRIDIUM 33 DEB",
        "meta_object_id": "1997-051EN",
        "meta_epoch": "2025-12-17T02:46:48.859392",
        "meta_mean_motion": 14.38504809,
        "meta_eccentricity": 0.00259035,
        "meta_inclination": 86.3502,
        "meta_ra_of_asc_node": 46.3755,
        "meta_arg_of_pericenter": 272.2851,
        "meta_mean_anomaly": 87.5381,
        "meta_ephemeris_type": 0,
        "meta_classification_type": "U",
        "meta_norad_cat_id": 34159,
        "meta_element_set_no": 999,
        "meta_rev_at_epoch": 88022,
        "meta_bstar": 0.00033600928,
        "meta_mean_motion_dot": 1.049e-05,
        "meta_mean_motion_ddot": 0,
        "tle_line1": "1 34159U 97051EN  25351.11584328  .00001049  00000+0  33601-3 0  9991",
        "tle_line2": "2 34159  86.3502  46.3755 0025903 272.2851  87.5381 14.38504809880228"
      },
      "geometry": {
        "type": "Point",
        "coordinates": [
          38.45383409382626,
          -64.49822695597717
        ]
      }
    }
  ]
}